OBJECT_NAME,OBJECT_ID,EPOCH,MEAN_MOTION,ECCENTRICITY,INCLINATION,RA_OF_ASC_NODE,ARG_OF_PERICENTER,MEAN_ANOMALY,EPHEMERIS_TYPE,CLASSIFICATION_TYPE,NORAD_CAT_ID,ELEMENT_SET_NO,REV_AT_EPOCH,BSTAR,MEAN_MOTION_DOT,MEAN_MOTION_DDOT
LEMUR-2-ROUNDTRIPPER,2025-009DG,2026-07-05T04:35:02.836320,15.04109103,.0004579,97.7221,268.8463,87.8506,272.3244,0,U,62711,999,8033,.12173763E-2,.1684E-3,0
LEMUR-2-MYNAMEISJEFF,2025-009DH,2026-07-05T04:32:47.286816,15.04101211,.00036231,97.7271,269.2366,121.7558,238.4021,0,U,62712,999,8033,.11984712E-2,.16572E-3,0
LEMUR-2-LEIA-PHILIP,2025-052AN,2026-07-05T05:55:04.780704,14.97370821,.00046804,97.6815,77.8917,146.1109,214.0413,0,U,63246,999,7137,.23439921E-3,.2666E-4,0
LEMUR-2-LIA-MARTIN,2025-052AQ,2026-07-05T05:53:08.153664,14.97964934,.00050189,97.6859,78.3919,115.4192,244.7550,0,U,63248,999,7138,.76625322E-3,.899E-4,0
LEMUR-2-DELOITTE-1,2025-052BB,2026-07-05T06:58:52.840704,14.97735353,.00022981,97.6885,78.7686,65.6875,294.4587,0,U,63259,999,7140,.55909205E-3,.6501E-4,0
LEMUR-2-EMERSONROSE,2025-052BD,2026-07-05T04:21:21.662208,14.99227224,.00026293,97.6867,79.2519,74.7094,285.4420,0,U,63261,999,7143,.60574665E-3,.7328E-4,0
LEMUR-2-MARACHE-FRAN,2025-052BE,2026-07-05T05:03:59.834880,15.00269174,.00043938,97.6875,79.6354,300.0229,60.0558,0,U,63262,999,7146,.66965837E-3,.8333E-4,0
LEMUR-2-THEFALCONER,2025-052BG,2026-07-05T06:04:30.476064,14.97522093,.00010194,97.6840,78.3312,28.6348,331.4930,0,U,63264,999,7139,.61313015E-3,.7097E-4,0
LEMUR-2-UNTITLED-SC,2025-061A,2026-07-05T00:07:29.630784,15.13600053,.00181139,97.5650,161.2388,198.3571,161.7008,0,U,63351,999,7028,.31952263E-3,.5692E-4,0
LEMUR-2-ESPERANZA,2025-061B,2026-07-05T09:04:09.336576,15.13705012,.0017779,97.5655,161.7064,195.9184,164.1491,0,U,63352,999,7034,.4191286E-3,.751E-4,0
LEMUR-2-KREMPEL-BRO2,2025-061C,2026-07-05T00:04:27.268032,15.14131233,.00188797,97.5704,161.8905,190.0662,170.0194,0,U,63353,999,7030,.31318318E-3,.5664E-4,0
LEMUR-2-THERMORAPTOR,2025-061D,2026-07-05T09:08:12.882624,15.14217282,.00186917,97.5707,162.3450,187.3934,172.7024,0,U,63354,999,7036,.27979174E-3,.5064E-4,0
LEMUR-2-NEUROSPICY,2025-061E,2026-07-04T21:19:21.380160,15.14329215,.00163835,97.5633,161.4679,192.3209,167.7625,0,U,63355,999,7029,.32991495E-3,.5998E-4,0
LEMUR-2-TILLINFINITY,2025-061F,2026-07-05T09:06:06.889824,15.14918475,.00180312,97.5620,162.2589,178.7002,181.4280,0,U,63356,999,7039,.27750496E-3,.5122E-4,0
LEMUR-2-KREMPEL-BRO1,2025-061G,2026-07-04T21:25:22.681632,15.14720504,.00185738,97.5621,161.6860,182.0507,178.0652,0,U,63357,999,7031,.32376654E-3,.5956E-4,0
LEMUR-2-LANGER2SPACE,2025-061H,2026-07-04T23:43:47.692416,15.14416285,.00163294,97.5628,161.5885,189.9761,170.1149,0,U,63358,999,7031,.28903675E-3,.5259E-4,0
LEMUR-2-BALTO,2025-052BH,2026-07-05T06:17:54.105792,15.00297759,.00057892,97.6924,79.6648,5.9502,354.1790,0,U,63395,999,7147,.74654252E-3,.9307E-4,0
LEMUR-2-KRISH,2025-135AK,2026-07-05T06:20:08.990880,14.96384157,.0001642,97.7758,301.0176,104.1888,255.9516,0,U,64561,999,5662,.79449487E-3,.8948E-4,0
LEMUR-2-HUBBLE-4,2025-135AP,2026-07-05T07:02:46.835232,14.93666828,.00017672,97.7712,299.9869,191.9350,168.1828,0,U,64565,999,5657,.17582888E-3,.1802E-4,0
LEMUR-2-SEJONG-2,2025-135BL,2026-07-05T14:56:12.134688,14.96865231,.00029726,97.7713,301.5199,261.4085,98.6800,0,U,64586,999,5670,.41674361E-3,.4722E-4,0
LEMUR-2-HUBBLE-5,2025-135BT,2026-07-05T07:20:32.222400,14.94193167,.00040822,97.7733,300.6576,279.5658,80.5101,0,U,64840,999,5661,.17212808E-3,.1787E-4,0
LEMUR-2-KARENDARRELL,2025-135BU,2026-07-05T07:50:20.551200,15.00403156,.00114331,97.7699,302.5080,136.4587,223.7541,0,U,64841,999,5673,.10290056E-2,.12904E-3,0
LEMUR-2-LUCILLE-ROSE,2025-135BV,2026-07-05T07:12:04.115232,15.00405199,.00135923,97.7726,302.5154,219.7709,140.2519,0,U,65403,999,5135,.10211306E-2,.12813E-3,0
LEMUR-2-AFFIE-WAUWIE,2025-248C,2026-07-05T13:31:22.144800,15.27968008,.00083848,45.3925,15.3744,201.1291,158.9253,0,U,66295,999,3740,.98110159E-3,.27095E-3,0
LEMUR-2-DEANANDMAEVE,2025-276N,2026-07-05T03:45:55.909440,15.19969748,.00043137,97.4199,259.3362,301.8123,58.2692,0,U,66678,999,3314,.55356844E-3,.11857E-3,0
LEMUR-2-STAS-GORBUK,2025-276W,2026-07-05T13:42:00.188928,15.19589206,.00035049,97.4234,259.7964,298.0298,62.0582,0,U,66686,999,3320,.38656161E-3,.8164E-4,0
LEMUR-2-TEODOR,2025-276DG,2026-07-05T04:55:59.668608,15.21261851,.00023495,97.4140,259.6964,98.3260,261.8243,0,U,66768,999,3318,.45744043E-3,.10159E-3,0
LEMUR-2-LAILA,2025-276DQ,2026-07-05T12:08:09.691872,15.21488780,.00028701,97.4164,260.1243,109.0476,251.1071,0,U,66776,999,3323,.38166516E-3,.852E-4,0
LEMUR-2-CELIJO-SB-PK,2025-276DW,2026-07-05T04:19:37.436160,15.00210002,.00075541,97.5202,256.3655,88.8480,271.3609,0,U,66781,999,2532,.95586472E-3,.11915E-3,0
